NORAD_CAT_ID,OBJECT_NAME,OBJECT_TYPE,EPOCH,MEAN_MOTION,ECCENTRICITY,INCLINATION,RA_OF_ASC_NODE,ARG_OF_PERICENTER,MEAN_ANOMALY,BSTAR,MEAN_MOTION_DOT,MEAN_MOTION_DDOT,TLE_LINE0,TLE_LINE1,TLE_LINE2,SEMIMAJOR_AXIS,PERIOD,APOGEE,PERIGEE,DECAYED
52830.0,STARLINK-4091,PAYLOAD,2024-03-19 02:11:26,15.08835893,0.0001483,53.2198,29.2043,90.6431,269.4731,1.1975e-05,-9.7e-07,0.0,0 STARLINK-4091,1 52830U 22062A   24079.09127363 -.00000097  00000-0  11975-4 0  9997,2 52830  53.2198  29.2043 0001483  90.6431 269.4731 15.08835893 97500,6917.893,95.438,540.784,538.732,0.0
52830.0,STARLINK-4091,PAYLOAD,2024-03-19 05:22:11,15.08842408,0.000148,53.2202,28.6104,95.6747,264.4414,4.2201e-05,3.84e-06,0.0,0 STARLINK-4091,1 52830U 22062A   24079.22374896  .00000384  00000-0  42201-4 0  9991,2 52830  53.2202  28.6104 0001480  95.6747 264.4414 15.08842408 97524,6917.873,95.437,540.762,538.714,0.0
52830.0,STARLINK-4091,PAYLOAD,2024-03-20 02:02:11,15.08851942,0.0001415,53.2196,24.7465,99.7614,260.3539,7.054e-05,8.35e-06,0.0,0 STARLINK-4091,1 52830U 22062A   24080.08485998  .00000835  00000-0  70540-4 0  9991,2 52830  53.2196  24.7465 0001415  99.7614 260.3539 15.08851942 97659,6917.844,95.437,540.688,538.73,0.0
52830.0,STARLINK-4091,PAYLOAD,2024-03-20 05:12:57,15.08859972,0.00016,53.2206,24.1508,98.0423,262.0751,0.00021488,3.135e-05,0.0,0 STARLINK-4091,1 52830U 22062A   24080.21733104  .00003135  00000-0  21488-3 0  9993,2 52830  53.2206  24.1508 0001600  98.0423 262.0751 15.08859972 97677,6917.819,95.436,540.791,538.577,0.0
52830.0,STARLINK-4091,PAYLOAD,2024-03-21 05:03:47,15.08831531,0.0001447,53.2195,19.6899,97.6309,262.4848,-3.5225e-06,-3.44e-06,0.0,0 STARLINK-4091,1 52830U 22062A   24081.21096153 -.00000344  00000-0 -35225-5 0  9997,2 52830  53.2195  19.6899 0001447  97.6309 262.4848 15.08831531 97822,6917.906,95.438,540.772,538.77,0.0
52830.0,STARLINK-4091,PAYLOAD,2024-03-21 13:00:42,15.08838473,0.0001297,53.2194,18.202,94.4798,265.6342,-1.3787e-05,-5.07e-06,0.0,0 STARLINK-4091,1 52830U 22062A   24081.54215574 -.00000507  00000-0 -13787-4 0  9992,2 52830  53.2194  18.2020 0001297  94.4798 265.6342 15.08838473 97873,6917.885,95.438,540.647,538.853,0.0
52830.0,STARLINK-4091,PAYLOAD,2024-03-22 01:43:46,15.08855654,0.0001686,53.2185,15.8235,90.9971,269.1214,0.00010764,1.426e-05,0.0,0 STARLINK-4091,1 52830U 22062A   24082.07206118  .00001426  00000-0  10764-3 0  9995,2 52830  53.2185  15.8235 0001686  90.9971 269.1214 15.08855654 97956,6917.833,95.437,540.864,538.531,0.0
52830.0,STARLINK-4091,PAYLOAD,2024-03-22 19:13:02,15.08833082,0.000141,53.218,12.5529,84.4651,275.6502,0.00011736,1.58e-05,0.0,0 STARLINK-4091,1 52830U 22062A   24082.80071867  .00001580  00000-0  11736-3 0  9998,2 52830  53.2180  12.5529 0001410  84.4651 275.6502 15.08833082 98065,6917.902,95.438,540.742,538.791,0.0
52830.0,STARLINK-4091,PAYLOAD,2024-03-23 22:14:35,15.0884769,0.0001384,53.219,7.4967,96.4436,263.6714,0.00021939,3.206e-05,0.0,0 STARLINK-4091,1 52830U 22062A   24083.92679416  .00003206  00000-0  21939-3 0  9999,2 52830  53.2190   7.4967 0001384  96.4436 263.6714 15.08847690 97723,6917.857,95.437,540.679,538.764,0.0
52830.0,STARLINK-4091,PAYLOAD,2024-03-24 04:36:06,15.0887366,0.0001483,53.2186,6.3051,108.38,251.7354,0.00065431,0.0001015,0.0,0 STARLINK-4091,1 52830U 22062A   24084.19174105  .00010150  00000-0  65431-3 0  9995,2 52830  53.2186   6.3051 0001483 108.3800 251.7354 15.08873660 98273,6917.778,95.435,540.668,538.617,0.0
52830.0,STARLINK-4091,PAYLOAD,2024-03-24 18:54:36,15.08826491,0.0001015,53.2193,3.6311,131.6595,228.4484,-0.00014659,-2.619e-05,0.0,0 STARLINK-4091,1 52830U 22062A   24084.78792137 -.00002619  00000-0 -14659-3 0  9990,2 52830  53.2193   3.6311 0001015 131.6595 228.4484 15.08826491 98366,6917.922,95.438,540.489,539.085,0.0
52830.0,STARLINK-4091,PAYLOAD,2024-03-24 22:05:22,15.08844981,0.0001809,53.218,3.0363,124.8297,235.2866,0.0002554,3.78e-05,0.0,0 STARLINK-4091,1 52830U 22062A   24084.92039727  .00003780  00000-0  25540-3 0  9994,2 52830  53.2180   3.0363 0001809 124.8297 235.2866 15.08844981 97876,6917.865,95.437,540.982,538.479,0.0
52830.0,STARLINK-4091,PAYLOAD,2024-03-25 04:26:54,15.08844454,0.0001402,53.2187,1.8471,110.2788,249.8355,0.00074529,0.00011595,0.0,0 STARLINK-4091,1 52830U 22062A   24085.18535808  .00011595  00000-0  74529-3 0  9998,2 52830  53.2187   1.8471 0001402 110.2788 249.8355 15.08844454 98423,6917.867,95.437,540.702,538.762,0.0
52830.0,STARLINK-4091,PAYLOAD,2024-03-25 18:45:23,15.08837543,0.0001693,53.2183,359.1718,110.1969,249.9206,0.0014802,0.00023346,0.0,0 STARLINK-4091,1 52830U 22062A   24085.78152455  .00023346  00000-0  14802-2 0  9991,2 52830  53.2183 359.1718 0001693 110.1969 249.9206 15.08837543 98511,6917.888,95.438,540.924,538.582,0.0
52830.0,STARLINK-4091,PAYLOAD,2024-03-25 21:56:09,15.08898638,0.0002599,53.2184,358.577,121.2065,238.9183,0.0036285,0.0005803,0.0,0 STARLINK-4091,1 52830U 22062A   24085.91399735  .00058030  00000-0  36285-2 0  9997,2 52830  53.2184 358.5770 0002599 121.2065 238.9183 15.08898638 98029,6917.701,95.434,541.364,537.768,0.0
52830.0,STARLINK-4091,PAYLOAD,2024-03-26 01:06:54,15.08921856,0.0002313,53.2181,357.9832,123.5299,236.5914,0.0039839,0.00063835,0.0,0 STARLINK-4091,1 52830U 22062A   24086.04646920  .00063835  00000-0  39839-2 0  9990,2 52830  53.2181 357.9832 0002313 123.5299 236.5914 15.08921856 98559,6917.63,95.432,541.095,537.895,0.0
52830.0,STARLINK-4091,PAYLOAD,2024-03-26 10:39:15,15.08804779,0.0002168,53.2184,356.1991,99.4628,260.661,-0.0011297,-0.00018206,0.0,0 STARLINK-4091,1 52830U 22062A   24086.44393035 -.00018206  00000-0 -11297-2 0  9992,2 52830  53.2184 356.1991 0002168  99.4628 260.6610 15.08804779 98616,6917.988,95.44,541.353,538.353,0.0
52830.0,STARLINK-4091,PAYLOAD,2024-03-26 21:46:57,15.08829265,0.0001538,53.2188,354.1242,136.1887,223.9227,-1.9375e-05,-5.96e-06,0.0,0 STARLINK-4091,1 52830U 22062A   24086.90760808 -.00000596  00000-0 -19375-4 0  9999,2 52830  53.2188 354.1242 0001538 136.1887 223.9227 15.08829265 98683,6917.913,95.438,540.842,538.714,0.0
52830.0,STARLINK-4091,PAYLOAD,2024-03-27 10:30:02,15.0884239,8.37e-05,53.217,351.741,125.331,234.7761,0.001213,0.00019071,0.0,0 STARLINK-4091,1 52830U 22062A   24087.43753142  .00019071  00000-0  12130-2 0  9997,2 52830  53.2170 351.7410 0000837 125.3310 234.7761 15.08842390 98256,6917.873,95.437,540.317,539.159,0.0
52830.0,STARLINK-4091,PAYLOAD,2024-03-27 21:37:44,15.08849947,8.17e-05,53.2172,349.659,129.1405,230.9659,0.00073543,0.00011439,0.0,0 STARLINK-4091,1 52830U 22062A   24087.90120928  .00011439  00000-0  73543-3 0  9995,2 52830  53.2172 349.6590 0000817 129.1405 230.9659 15.08849947 98831,6917.85,95.437,540.28,539.15,0.0
52830.0,STARLINK-4091,PAYLOAD,2024-03-28 10:20:49,15.08861261,7.26e-05,53.2165,347.2766,91.044,269.0635,0.00058524,9.044e-05,0.0,0 STARLINK-4091,1 52830U 22062A   24088.43112270  .00009044  00000-0  58524-3 0  9996,2 52830  53.2165 347.2766 0000726  91.0440 269.0635 15.08861261 98400,6917.815,95.436,540.183,539.178,0.0
52830.0,STARLINK-4091,PAYLOAD,2024-03-28 21:28:30,15.08846486,6.91e-05,53.216,345.1955,119.933,240.1731,-2.5043e-05,-6.86e-06,0.0,0 STARLINK-4091,1 52830U 22062A   24088.89480222 -.00000686  00000-0 -25043-4 0  9997,2 52830  53.2160 345.1955 0000691 119.9330 240.1731 15.08846486 98983,6917.861,95.437,540.204,539.248,0.0
52830.0,STARLINK-4091,PAYLOAD,2024-03-28 23:03:54,15.08847597,6.38e-05,53.2165,344.9015,111.72,248.386,1.0422e-05,-1.22e-06,0.0,0 STARLINK-4091,1 52830U 22062A   24088.96104242 -.00000122  00000-0  10422-4 0  9999,2 52830  53.2165 344.9015 0000638 111.7200 248.3860 15.08847597 98481,6917.857,95.437,540.164,539.281,0.0
52830.0,STARLINK-4091,PAYLOAD,2024-03-29 10:11:36,15.08844415,7.93e-05,53.2164,342.8202,79.836,280.2721,0.00032219,4.844e-05,0.0,0 STARLINK-4091,1 52830U 22062A   24089.42472434  .00004844  00000-0  32219-3 0  9993,2 52830  53.2164 342.8202 0000793  79.8360 280.2721 15.08844415 98553,6917.867,95.437,540.28,539.183,0.0
52830.0,STARLINK-4091,PAYLOAD,2024-03-29 21:19:18,15.08838504,7.88e-05,53.2163,340.7388,72.5125,287.5953,0.00021067,3.067e-05,0.0,0 STARLINK-4091,1 52830U 22062A   24089.88840683  .00003067  00000-0  21067-3 0  9993,2 52830  53.2163 340.7388 0000788  72.5125 287.5953 15.08838504 99131,6917.885,95.438,540.295,539.205,0.0
52830.0,STARLINK-4091,PAYLOAD,2024-03-29 22:54:41,15.08843943,5.23e-05,53.2154,340.4398,92.8966,267.2086,0.0001478,2.066e-05,0.0,0 STARLINK-4091,1 52830U 22062A   24089.95464438  .00002066  00000-0  14780-3 0  9993,2 52830  53.2154 340.4398 0000523  92.8966 267.2086 15.08843943 98633,6917.868,95.437,540.095,539.372,0.0
52830.0,STARLINK-4091,PAYLOAD,2024-03-30 10:02:23,15.0883985,6.24e-05,53.2147,338.3575,104.3856,255.7205,0.0001661,2.357e-05,0.0,0 STARLINK-4091,1 52830U 22062A   24090.41832673  .00002357  00000-0  16610-3 0  9993,2 52830  53.2147 338.3575 0000624 104.3856 255.7205 15.08839850 98702,6917.881,95.438,540.178,539.314,0.0
52830.0,STARLINK-4091,PAYLOAD,2024-03-30 22:45:28,15.08840995,7.11e-05,53.215,335.9785,90.3045,269.8028,0.00020491,2.975e-05,0.0,0 STARLINK-4091,1 52830U 22062A   24090.94824890  .00002975  00000-0  20491-3 0  9991,2 52830  53.2150 335.9785 0000711  90.3045 269.8028 15.08840995 98782,6917.877,95.437,540.234,539.25,0.0
52830.0,STARLINK-4091,PAYLOAD,2024-03-31 01:56:14,15.08847803,7.58e-05,53.2173,335.3818,105.0956,255.012,0.00017241,2.458e-05,0.0,0 STARLINK-4091,1 52830U 22062A   24091.08072559  .00002458  00000-0  17241-3 0  9999,2 52830  53.2173 335.3818 0000758 105.0956 255.0120 15.08847803 99319,6917.857,95.437,540.246,539.197,0.0
52830.0,STARLINK-4091,PAYLOAD,2024-03-31 22:36:15,15.08851563,5.97e-05,53.218,331.5173,101.7336,258.3724,0.00035976,5.444e-05,0.0,0 STARLINK-4091,1 52830U 22062A   24091.94184172  .00005444  00000-0  35976-3 0  9992,2 52830  53.2180 331.5173 0000597 101.7336 258.3724 15.08851563 98936,6917.845,95.437,540.123,539.297,0.0
